STRIX-BETA              
1 51847U 22020A   22088.91731609  .00002442  00000+0  19516-3 0  9993
2 51847  97.7755 142.7117 0012962 185.3231 345.8450 15.01125714  4351
ELECTRON KICK STAGE R/B 
1 51848U 22020B   22088.91373347  .00006655  00000+0  32517-3 0  9991
2 51848  97.0880 140.0288 0057958 288.5489  70.9457 15.17059378  4407
GOES 18                 
1 51850U 22021A   22088.90830703 -.00000204  00000+0  00000+0 0  9991
2 51850   0.0402 307.2321 0000200 203.0959 274.5398  1.00274129   368
ATLAS 5 CENTAUR R/B     
1 51851U 22021B   22083.79029212 -.00000158  00000+0  00000+0 0  9997
2 51851   9.6343 331.8919 4765990 182.3001 174.1901  1.85569205   415
STARLINK-3542           
1 51852U 22022A   22088.91667824 -.00717678  00000+0 -86127-2 0  9995
2 51852  53.2176  14.1755 0001298  52.4423 273.4834 15.62570261  3706
STARLINK-3539           
1 51853U 22022B   22088.91667824 -.00717679  00000+0 -86559-2 0  9996
2 51853  53.2176  14.1762 0001365  48.0221 274.0457 15.62442455  3708
STARLINK-3541           
1 51854U 22022C   22088.91667824 -.00611788  00000+0 -72326-2 0  9998
2 51854  53.2179  14.1761 0001152  83.8612 245.9248 15.62618644  3661
STARLINK-3545           
1 51855U 22022D   22088.91667824 -.00718136  00000+0 -84896-2 0  9999
2 51855  53.2177  14.1746 0001244  55.0378 282.2311 15.62953937  3690
STARLINK-3568           
1 51856U 22022E   22088.91667824 -.00717894  00000+0 -85295-2 0  9994
2 51856  53.2176  14.1749 0001195  59.0126 274.5136 15.62826020  3706
STARLINK-3571           
1 51857U 22022F   22088.91667824 -.00718084  00000+0 -84040-2 0  9994
2 51857  53.2177  14.1733 0001120  67.7111 276.9280 15.63209542  3700
STARLINK-3563           
1 51858U 22022G   22088.91667824 -.00718007  00000+0 -84455-2 0  9990
2 51858  53.2177  14.1738 0001146  62.4286 278.5446 15.63081699  3702
STARLINK-3560           
1 51859U 22022H   22088.91667824 -.00582348  00000+0 -43952-2 0  9995
2 51859  53.2183  13.9525 0001069  86.4799  18.1257 15.73433551  3695
STARLINK-3559           
1 51860U 22022J   22088.91667824 -.00009517  00000+0 -63448-4 0  9993
2 51860  53.2179  13.9612 0001252  86.0600  17.2272 15.73208509  3690
STARLINK-3562           
1 51861U 22022K   22088.91667824 -.00043611  00000+0 -30753-3 0  9999
2 51861  53.2189  13.9568 0001243  95.3886  10.5039 15.73229759  3665
STARLINK-3508           
1 51862U 22022L   22088.91667824 -.00584460  00000+0 -44099-2 0  9999
2 51862  53.2173  13.9534 0001304  86.4392  17.5322 15.73444380  3697
STARLINK-3555           
1 51863U 22022M   22088.91667824 -.00085275  00000+0 -60824-3 0  9995
2 51863  53.2190  13.9543 0001070  89.7618  17.3884 15.73242957  3668
STARLINK-3548           
1 51864U 22022N   22088.91667824  .00033879  00000+0  24502-3 0  9990
2 51864  53.2179  13.9578 0001139  89.4878  15.6943 15.73182143  3695
STARLINK-3503           
1 51865U 22022P   22088.91667824  .00034561  00000+0  25014-3 0  9999
2 51865  53.2181  13.9517 0001296  95.4303  12.9488 15.73154263  3692
STARLINK-3553           
1 51866U 22022Q   22088.91667824 -.00323448  00000+0 -23767-2 0  9999
2 51866  53.2182  13.9486 0001328  87.1218  19.4137 15.73328308  3694
STARLINK-3590           
1 51867U 22022R   22088.91667824  .00036872  00000+0  26645-3 0  9999
2 51867  53.2190  13.9510 0000949  97.1594  11.8724 15.73158214  3693
STARLINK-3578           
1 51868U 22022S   22088.91667824  .00033389  00000+0  24183-3 0  9995
2 51868  53.2187  13.9525 0001207  90.6932  17.0560 15.73155267  3699
STARLINK-3588           
1 51869U 22022T   22088.91667824  .00031656  00000+0  22948-3 0  9998
2 51869  53.2191  13.9469 0001060 101.6933   9.2008 15.73162771  3691
STARLINK-3591           
1 51870U 22022U   22088.91667824  .00015069  00000+0  11193-3 0  9990
2 51870  53.2188  13.9483 0000916  94.2961  15.4791 15.73128337  3690
STARLINK-3567           
1 51871U 22022V   22088.91667824  .00035591  00000+0  25739-3 0  9994
2 51871  53.2192  13.9457 0001410  85.6093  25.9937 15.73158182  3663
STARLINK-3554           
1 51872U 22022W   22088.91667824  .00031865  00000+0  23118-3 0  9994
2 51872  53.2189  13.9476 0001376  79.5142  30.7932 15.73140465  3696
STARLINK-3582           
1 51873U 22022X   22088.91667824 -.00004106  00000+0 -24848-4 0  9997
2 51873  53.2175  13.9271 0001194  72.2018  41.1218 15.73206252  3695
STARLINK-3574           
1 51874U 22022Y   22088.91667824 -.00012020  00000+0 -81367-4 0  9991
2 51874  53.2187  13.9433 0001419  85.5057  26.7694 15.73193658  3691
STARLINK-3585           
1 51875U 22022Z   22088.91667824 -.00074383  00000+0 -52914-3 0  9997
2 51875  53.2189  13.9394 0001014  82.5260  32.2704 15.73250045  3669
STARLINK-3583           
1 51876U 22022AA  22088.91667824  .00038979  00000+0  28137-3 0  9997
2 51876  53.2190  13.9426 0001285  87.2415  25.6266 15.73156887  3693
STARLINK-3556           
1 51877U 22022AB  22088.91667824  .00037539  00000+0  27129-3 0  9999
2 51877  53.2192  13.9368 0000931  72.1049  43.9640 15.73148071  3699
STARLINK-3575           
1 51878U 22022AC  22088.91667824 -.00031724  00000+0 -22248-3 0  9999
2 51878  53.2189  13.9400 0001157  95.3779  18.7901 15.73199188  3696
STARLINK-3572           
1 51879U 22022AD  22088.91667824 -.00003961  00000+0 -23810-4 0  9999
2 51879  53.2175  13.9194 0001283  70.4466  46.7092 15.73206171  3692
STARLINK-3566           
1 51880U 22022AE  22088.91667824 -.00039437  00000+0 -27750-3 0  9994
2 51880  53.2190  13.9372 0001180  97.4918  18.0166 15.73232897  3661
STARLINK-3504           
1 51881U 22022AF  22088.91667824 -.00053178  00000+0 -37646-3 0  9998
2 51881  53.2187  13.9316 0001249  81.4951  37.1379 15.73225713  3692
STARLINK-3570           
1 51882U 22022AG  22088.91667824  .00545464  00000+0  37010-2 0  9995
2 51882  53.2177  13.9231 0001252  86.0109  30.7294 15.72834972  3662
STARLINK-3576           
1 51883U 22022AH  22088.91667824  .00035129  00000+0  25414-3 0  9994
2 51883  53.2189  13.9290 0001164  87.2169  32.6872 15.73156193  3691
STARLINK-3577           
1 51884U 22022AJ  22088.91667824 -.00008475  00000+0 -56007-4 0  9994
2 51884  53.2190  13.9323 0000998  84.6350  33.3794 15.73211412  3695
STARLINK-3584           
1 51885U 22022AK  22088.91667824  .00036668  00000+0  26524-3 0  9998
2 51885  53.2185  13.9268 0001413  84.4249  36.7977 15.73137384  3691
STARLINK-3565           
1 51886U 22022AL  22088.91667824  .00033403  00000+0  24178-3 0  9996
2 51886  53.2188  13.9297 0000924  57.8228  61.4618 15.73169806  3695
STARLINK-3551           
1 51887U 22022AM  22088.91667824  .00068565  00000+0  48972-3 0  9992
2 51887  53.2173  13.9116 0001394  82.2605  39.3834 15.73163872  3694
STARLINK-3536           
1 51888U 22022AN  22088.91667824 -.00030695  00000+0 -21521-3 0  9999
2 51888  53.2189  13.9273 0001113  85.6654  34.9105 15.73186671  3690
STARLINK-3547           
1 51889U 22022AP  22088.91667824 -.00047651  00000+0 -33690-3 0  9990
2 51889  53.2171  13.9216 0001183  92.4062  31.3792 15.73208592  3695
STARLINK-3519           
1 51890U 22022AQ  22088.91667824 -.00002301  00000+0 -11971-4 0  9994
2 51890  53.2189  13.9239 0001373  76.8710  45.5048 15.73216386  3666
STARLINK-3549           
1 51891U 22022AR  22088.91667824 -.00107200  00000+0 -77039-3 0  9995
2 51891  53.2174  13.9206 0001019  72.9908  51.4492 15.73163451  3694
STARLINK-3587           
1 51892U 22022AS  22088.91667824  .00088271  00000+0  62803-3 0  9993
2 51892  53.2174  13.9087 0001653  67.2612  55.6651 15.73152524  3697
STARLINK-3579           
1 51893U 22022AT  22088.91667824  .00035464  00000+0  25676-3 0  9997
2 51893  53.2173  13.9181 0000701  74.6251  51.1073 15.73133631  3693
STARLINK-3595           
1 51894U 22022AU  22088.91667824  .00036056  00000+0  26056-3 0  9999
2 51894  53.2189  13.9183 0001356  95.4128  29.5962 15.73168597  3699
STARLINK-3594           
1 51895U 22022AV  22088.91667824 -.00074812  00000+0 -53254-3 0  9994
2 51895  53.2172  13.9157 0001017  81.0836  45.8929 15.73237023  3699
STARLINK-3593           
1 51896U 22022AW  22088.91667824 -.00104927  00000+0 -75154-3 0  9999
2 51896  53.2190  13.9155 0000860  73.9213  52.5471 15.73232485  3696
STARLINK-3598           
1 51897U 22022AX  22088.91667824  .00032648  00000+0  23636-3 0  9996
2 51897  53.2184  13.9143 0001148  89.5761  37.9963 15.73177000  3692
STARLINK-3597           
1 51898U 22022AY  22088.91667824  .00020494  00000+0  15048-3 0  9991
2 51898  53.2189  13.9116 0001045  82.0301  46.2580 15.73136770  3699
FALCON 9 DEB            
1 51899U 22022AZ  22088.88716274  .00382203  71855-4  80071-3 0  9990
2 51899  53.2280  11.0535 0003036 350.5604   9.5370 15.98451378  4193
FALCON 9 DEB            
1 51900U 22022BA  22088.93692612  .00435144  92371-4  83356-3 0  9996
2 51900  53.2229  10.6353 0002434 286.2939  73.7825 16.00018147  4206
FALCON 9 DEB            
1 51901U 22022BB  22088.79260072  .00400330  80251-4  73207-3 0  9999
2 51901  53.2213  11.1343 0005817 324.8592  35.2056 16.00804335  4185
FALCON 9 DEB            
1 51902U 22022BC  22088.79000308  .00437039  94293-4  78971-3 0  9994
2 51902  53.2176  11.1119 0005917 302.3296  57.7162 16.00999884  4189
2022-023A               
1 51946U 22023A   22088.89450017  .00004364  00000+0  18777-3 0  9997
2 51946  63.4533 110.9995 0018986 311.2227 111.5986 15.24011727  3762
2022-023B               
1 51947U 22023B   22088.89077311  .00010850  00000+0  45035-3 0  9994
2 51947  63.4498 110.9719 0019395 309.5289 112.7033 15.24122043  3760
2022-023C               
1 51948U 22023C   22088.89693601  .00004840  00000+0  20656-3 0  9995
2 51948  63.4459 110.9877 0018655 302.3088 120.8300 15.24113676  3768
2022-023D               
1 51949U 22023D   22088.89883803  .00004311  00000+0  18534-3 0  9996
2 51949  63.4507 111.0118 0017115 307.6874 115.7048 15.24088878  3761
